start=new Date('2022-05-17T00:00:00.000Z').valueOf();
sats=[{"MEAN_ANOMALY":"255.9765","DECAY_DATE":null,"CENTER_NAME":"EARTH","NORAD_CAT_ID":"49143","GP_ID":"203710965","LAUNCH_DATE":"2021-09-14","INCLINATION":"69.9995","RA_OF_ASC_NODE":"185.4836","TLE_LINE2":"2 49143  69.9995 185.4836 0003482 271.1613 255.9765 14.96689592 37865","SITE":"AFWTR","OBJECT_NAME":"STARLINK-3109","REF_FRAME":"TEME","OBJECT_ID":"2021-082P","RCS_SIZE":"LARGE","CLASSIFICATION_TYPE":"U","ELEMENT_SET_NO":"999","BSTAR":"0.00318720000000","PERIAPSIS":"574.714","COUNTRY_CODE":"US","OBJECT_TYPE":"PAYLOAD","REV_AT_EPOCH":"3786","EPHEMERIS_TYPE":"0","FILE":"3449000","MEAN_ELEMENT_THEORY":"SGP4","TLE_LINE1":"1 49143U 21082P   22136.91667824  .00036556  00000-0  31872-2 0  9999","APOAPSIS":"579.557","PERIOD":"96.212","ECCENTRICITY":"0.00034820","SEMIMAJOR_AXIS":"6955.270","MEAN_MOTION":"14.96689592","MEAN_MOTION_DDOT":"0.0000000000000","ARG_OF_PERICENTER":"271.1613","TIME_SYSTEM":"UTC","EPOCH":"2022-05-16T22:00:00.999936","MEAN_MOTION_DOT":"0.00036556"},{"MEAN_ANOMALY":"230.5767","DECAY_DATE":null,"CENTER_NAME":"EARTH","LAUNCH_DATE":"2021-09-14","GP_ID":"203673243","INCLINATION":"70.0016","NORAD_CAT_ID":"49144","RA_OF_ASC_NODE":"206.9719","TLE_LINE2":"2 49144  70.0016 206.9719 0003330 279.2983 230.5767 14.98312582 37307","SITE":"AFWTR","REF_FRAME":"TEME","OBJECT_ID":"2021-082Q","RCS_SIZE":"LARGE","OBJECT_NAME":"STARLINK-3100","ELEMENT_SET_NO":"999","BSTAR":"0.00293040000000","CLASSIFICATION_TYPE":"U","REV_AT_EPOCH":"3730","PERIAPSIS":"569.797","COUNTRY_CODE":"US","OBJECT_TYPE":"PAYLOAD","MEAN_ELEMENT_THEORY":"SGP4","FILE":"3448446","EPHEMERIS_TYPE":"0","TLE_LINE1":"1 49144U 21082Q   22136.58334491  .00035032  00000-0  29304-2 0  9999","APOAPSIS":"574.426","MEAN_MOTION":"14.98312582","PERIOD":"96.108","ECCENTRICITY":"0.00033300","SEMIMAJOR_AXIS":"6950.247","MEAN_MOTION_DDOT":"0.0000000000000","ARG_OF_PERICENTER":"279.2983","MEAN_MOTION_DOT":"0.00035032","EPOCH":"2022-05-16T14:00:01.000224","TIME_SYSTEM":"UTC"},{"EPHEMERIS_TYPE":"0","FILE":"3449000","MEAN_ELEMENT_THEORY":"SGP4","TLE_LINE1":"1 49145U 21082R   22136.91667824  .00068760  00000-0  52549-2 0  9997","APOAPSIS":"564.389","MEAN_MOTION_DDOT":"0.0000000000000","ARG_OF_PERICENTER":"272.3820","TIME_SYSTEM":"UTC","EPOCH":"2022-05-16T22:00:00.999936","MEAN_MOTION_DOT":"0.00068760","PERIOD":"95.901","ECCENTRICITY":"0.00032570","SEMIMAJOR_AXIS":"6940.264","MEAN_MOTION":"15.01546534","CENTER_NAME":"EARTH","NORAD_CAT_ID":"49145","LAUNCH_DATE":"2021-09-14","GP_ID":"203710462","INCLINATION":"69.9966","MEAN_ANOMALY":"109.8238","DECAY_DATE":null,"CLASSIFICATION_TYPE":"U","ELEMENT_SET_NO":"999","BSTAR":"0.00525490000000","COUNTRY_CODE":"US","PERIAPSIS":"559.868","OBJECT_TYPE":"PAYLOAD","REV_AT_EPOCH":"3835","RA_OF_ASC_NODE":"165.4124","SITE":"AFWTR","TLE_LINE2":"2 49145  69.9966 165.4124 0003257 272.3820 109.8238 15.01546534 38358","OBJECT_NAME":"STARLINK-3119","REF_FRAME":"TEME","OBJECT_ID":"2021-082R","RCS_SIZE":"LARGE"},{"PERIOD":"96.212","ECCENTRICITY":"0.00033110","SEMIMAJOR_AXIS":"6955.244","MEAN_MOTION":"14.96698013","MEAN_MOTION_DDOT":"0.0000000000000","ARG_OF_PERICENTER":"279.1077","EPOCH":"2022-05-16T14:00:01.000224","TIME_SYSTEM":"UTC","MEAN_MOTION_DOT":"0.00044664","MEAN_ELEMENT_THEORY":"SGP4","FILE":"3448233","EPHEMERIS_TYPE":"0","TLE_LINE1":"1 49146U 21082S   22136.58334491  .00044664  00000-0  38870-2 0  9990","APOAPSIS":"579.412","RA_OF_ASC_NODE":"186.3156","SITE":"AFWTR","TLE_LINE2":"2 49146  69.9991 186.3156 0003311 279.1077 278.5373 14.96698013 38980","OBJECT_NAME":"STARLINK-3116","OBJECT_ID":"2021-082S","REF_FRAME":"TEME","RCS_SIZE":"LARGE","CLASSIFICATION_TYPE":"U","ELEMENT_SET_NO":"999","BSTAR":"0.00388700000000","OBJECT_TYPE":"PAYLOAD","COUNTRY_CODE":"US","PERIAPSIS":"574.806","REV_AT_EPOCH":"3898","MEAN_ANOMALY":"278.5373","DECAY_DATE":null,"CENTER_NAME":"EARTH","NORAD_CAT_ID":"49146","GP_ID":"203668284","LAUNCH_DATE":"2021-09-14","INCLINATION":"69.9991"},{"CENTER_NAME":"EARTH","NORAD_CAT_ID":"49147","GP_ID":"203704810","LAUNCH_DATE":"2021-09-14","INCLINATION":"70.0000","DECAY_DATE":null,"MEAN_ANOMALY":"76.2850","CLASSIFICATION_TYPE":"U","BSTAR":"-0.05816600000000","ELEMENT_SET_NO":"999","COUNTRY_CODE":"US","OBJECT_TYPE":"PAYLOAD","PERIAPSIS":"557.499","REV_AT_EPOCH":"3953","TLE_LINE2":"2 49147  70.0000 165.3381 0003334 279.9173  76.2850 15.02298532 39537","SITE":"AFWTR","RA_OF_ASC_NODE":"165.3381","OBJECT_NAME":"STARLINK-3071","RCS_SIZE":"LARGE","REF_FRAME":"TEME","OBJECT_ID":"2021-082T","FILE":"3448759","EPHEMERIS_TYPE":"0","MEAN_ELEMENT_THEORY":"SGP4","APOAPSIS":"562.126","TLE_LINE1":"1 49147U 21082T   22136.91667824 -.00716107  00000-0 -58166-1 0  9996","ARG_OF_PERICENTER":"279.9173","MEAN_MOTION_DDOT":"0.0000000000000","TIME_SYSTEM":"UTC","EPOCH":"2022-05-16T22:00:00.999936","MEAN_MOTION_DOT":"-0.00716107","SEMIMAJOR_AXIS":"6937.948","ECCENTRICITY":"0.00033340","PERIOD":"95.853","MEAN_MOTION":"15.02298532"},{"SITE":"AFWTR","TLE_LINE2":"2 49148  69.9979 185.6870 0003434 274.3358 216.1858 14.96731628 38984","RA_OF_ASC_NODE":"185.6870","RCS_SIZE":"LARGE","REF_FRAME":"TEME","OBJECT_ID":"2021-082U","OBJECT_NAME":"STARLINK-3048","BSTAR":"-0.00240470000000","ELEMENT_SET_NO":"999","CLASSIFICATION_TYPE":"U","REV_AT_EPOCH":"3898","COUNTRY_CODE":"US","OBJECT_TYPE":"PAYLOAD","PERIAPSIS":"574.617","DECAY_DATE":null,"MEAN_ANOMALY":"216.1858","CENTER_NAME":"EARTH","GP_ID":"203701984","LAUNCH_DATE":"2021-09-14","INCLINATION":"69.9979","NORAD_CAT_ID":"49148","MEAN_MOTION":"14.96731628","SEMIMAJOR_AXIS":"6955.140","PERIOD":"96.210","ECCENTRICITY":"0.00034340","MEAN_MOTION_DDOT":"0.0000000000000","ARG_OF_PERICENTER":"274.3358","MEAN_MOTION_DOT":"-0.00027519","EPOCH":"2022-05-16T20:00:01.000224","TIME_SYSTEM":"UTC","MEAN_ELEMENT_THEORY":"SGP4","FILE":"3448638","EPHEMERIS_TYPE":"0","APOAPSIS":"579.394","TLE_LINE1":"1 49148U 21082U   22136.83334491 -.00027519  00000-0 -24047-2 0  9993"},{"CENTER_NAME":"EARTH","NORAD_CAT_ID":"49149","GP_ID":"203698723","LAUNCH_DATE":"2021-09-14","INCLINATION":"70.0005","MEAN_ANOMALY":"252.0455","DECAY_DATE":null,"CLASSIFICATION_TYPE":"U","ELEMENT_SET_NO":"999","BSTAR":"0.00284640000000","COUNTRY_CODE":"US","OBJECT_TYPE":"PAYLOAD","PERIAPSIS":"569.712","REV_AT_EPOCH":"130","RA_OF_ASC_NODE":"206.9565","TLE_LINE2":"2 49149  70.0005 206.9565 0003504 283.6075 252.0455 14.98300924  1304","SITE":"AFWTR","OBJECT_NAME":"STARLINK-3053","REF_FRAME":"TEME","OBJECT_ID":"2021-082V","RCS_SIZE":"LARGE","FILE":"3448591","EPHEMERIS_TYPE":"0","MEAN_ELEMENT_THEORY":"SGP4","TLE_LINE1":"1 49149U 21082V   22136.58334491  .00034010  00000-0  28464-2 0  9995","APOAPSIS":"574.583","MEAN_MOTION_DDOT":"0.0000000000000","ARG_OF_PERICENTER":"283.6075","TIME_SYSTEM":"UTC","EPOCH":"2022-05-16T14:00:01.000224","MEAN_MOTION_DOT":"0.00034010","PERIOD":"96.109","ECCENTRICITY":"0.00035040","SEMIMAJOR_AXIS":"6950.283","MEAN_MOTION":"14.98300924"},{"MEAN_MOTION_DDOT":"0.0000000000000","ARG_OF_PERICENTER":"283.5586","MEAN_MOTION_DOT":"0.00003123","TIME_SYSTEM":"UTC","EPOCH":"2022-05-16T14:00:01.000224","MEAN_MOTION":"14.98325659","ECCENTRICITY":"0.00035880","PERIOD":"96.107","SEMIMAJOR_AXIS":"6950.206","FILE":"3448591","EPHEMERIS_TYPE":"0","MEAN_ELEMENT_THEORY":"SGP4","TLE_LINE1":"1 49150U 21082W   22136.58334491  .00003123  00000-0  26942-3 0  9998","APOAPSIS":"574.565","BSTAR":"0.00026942000000","ELEMENT_SET_NO":"999","CLASSIFICATION_TYPE":"U","REV_AT_EPOCH":"130","COUNTRY_CODE":"US","PERIAPSIS":"569.578","OBJECT_TYPE":"PAYLOAD","RA_OF_ASC_NODE":"206.9583","TLE_LINE2":"2 49150  70.0022 206.9583 0003588 283.5586 277.7844 14.98325659  1301","SITE":"AFWTR","OBJECT_ID":"2021-082W","REF_FRAME":"TEME","RCS_SIZE":"LARGE","OBJECT_NAME":"STARLINK-3104","CENTER_NAME":"EARTH","INCLINATION":"70.0022","GP_ID":"203698973","LAUNCH_DATE":"2021-09-14","NORAD_CAT_ID":"49150","MEAN_ANOMALY":"277.7844","DECAY_DATE":null},{"BSTAR":"-0.00491970000000","ELEMENT_SET_NO":"999","CLASSIFICATION_TYPE":"U","REV_AT_EPOCH":"130","OBJECT_TYPE":"PAYLOAD","COUNTRY_CODE":"US","PERIAPSIS":"559.661","SITE":"AFWTR","TLE_LINE2":"2 49151  69.9973 166.2251 0003292 283.2510 173.7278 15.01605975  1303","RA_OF_ASC_NODE":"166.2251","RCS_SIZE":"LARGE","REF_FRAME":"TEME","OBJECT_ID":"2021-082X","OBJECT_NAME":"STARLINK-3102","CENTER_NAME":"EARTH","GP_ID":"203700224","LAUNCH_DATE":"2021-09-14","INCLINATION":"69.9973","NORAD_CAT_ID":"49151","DECAY_DATE":null,"MEAN_ANOMALY":"173.7278","ARG_OF_PERICENTER":"283.2510","MEAN_MOTION_DDOT":"0.0000000000000","MEAN_MOTION_DOT":"-0.00063463","TIME_SYSTEM":"UTC","EPOCH":"2022-05-16T14:00:01.000224","MEAN_MOTION":"15.01605975","SEMIMAJOR_AXIS":"6940.081","ECCENTRICITY":"0.00032920","PERIOD":"95.897","EPHEMERIS_TYPE":"0","FILE":"3448591","MEAN_ELEMENT_THEORY":"SGP4","APOAPSIS":"564.230","TLE_LINE1":"1 49151U 21082X   22136.58334491 -.00063463  00000-0 -49197-2 0  9990"},{"MEAN_ANOMALY":"191.6577","DECAY_DATE":null,"CENTER_NAME":"EARTH","NORAD_CAT_ID":"49152","INCLINATION":"70.0000","GP_ID":"203701800","LAUNCH_DATE":"2021-09-14","RA_OF_ASC_NODE":"165.5894","TLE_LINE2":"2 49152  70.0000 165.5894 0003203 277.9382 191.6577 15.01568590 39484","SITE":"AFWTR","OBJECT_NAME":"STARLINK-3081","REF_FRAME":"TEME","OBJECT_ID":"2021-082Y","RCS_SIZE":"LARGE","CLASSIFICATION_TYPE":"U","BSTAR":"-0.00004440900000","ELEMENT_SET_NO":"999","PERIAPSIS":"559.838","COUNTRY_CODE":"US","OBJECT_TYPE":"PAYLOAD","REV_AT_EPOCH":"3948","FILE":"3448653","EPHEMERIS_TYPE":"0","MEAN_ELEMENT_THEORY":"SGP4","TLE_LINE1":"1 49152U 21082Y   22136.83334491 -.00000672  00000-0 -44409-4 0  9995","APOAPSIS":"564.284","PERIOD":"95.900","ECCENTRICITY":"0.00032030","SEMIMAJOR_AXIS":"6940.196","MEAN_MOTION":"15.01568590","ARG_OF_PERICENTER":"277.9382","MEAN_MOTION_DDOT":"0.0000000000000","EPOCH":"2022-05-16T20:00:01.000224","TIME_SYSTEM":"UTC","MEAN_MOTION_DOT":"-0.00000672"}];
